LANDSAT 9               
1 49260U 21088A   25334.74228464  .00000463  00000+0  11291-3 0  9993
2 49260  98.2108  43.0263 0001122  92.1822 267.9505 14.57109997222102
CSG-2                   
1 51444U 22008A   25334.80675443  .00000483  00000+0  67154-4 0  9995
2 51444  97.8808 156.3094 0001464  86.9736 273.1645 14.82168505207201
GAOFEN-12 03            
1 52912U 22069A   25334.86933876  .00001224  00000+0  17032-3 0  9999
2 52912  97.8491 222.4923 0002349  79.0140 281.1336 14.79561592185289
SWOT                    
1 54754U 22173A   25334.84562898  .00000025  00000+0  18780-4 0  9991
2 54754  77.6098 303.0468 0000283 149.6275 210.4893 14.00171876151396
GAOFEN-12 04            
1 57654U 23123A   25334.90580204  .00001527  00000+0  21042-3 0  9999
2 57654  97.9110 250.8435 0001479  71.5692 288.5681 14.79641517123306
PARS 1                  
1 59065U 24039Q   25334.91343329  .00012401  00000+0  30614-3 0  9998
2 59065  97.4616 305.6011 0012577 107.0438 253.2187 15.40578559 98061
RESURS-P 4              
1 59371U 24061A   25334.88533700  .00004461  00000+0  14715-3 0  9994
2 59371  97.2522 281.4611 0002354  56.9776 303.1692 15.31937653 93392
LEGION 1                
1 59625U 24081A   25334.78807686  .00004926  00000+0  25775-3 0  9998
2 59625  97.5229  49.5294 0004932   3.8320 356.2950 15.16293531 87461
