{
  "type": "FeatureCollection",
  "features": [
    {
      "type": "Feature",
      "properties": {
        "norad_id": 49260,
        "name": "LANDSAT 9",
        "group": "resource",
        "lat": NaN,
        "lon": NaN,
        "alt_km": NaN,
        "timestamp": "2025-12-01T03:03:40.644904+00:00",
        "meta": {
          "OBJECT_NAME": "LANDSAT 9",
          "OBJECT_ID": "2021-088A",
          "EPOCH": "2025-11-30T17:48:53.392896",
          "MEAN_MOTION": 14.57109997,
          "ECCENTRICITY": 0.0001122,
          "INCLINATION": 98.2108,
          "RA_OF_ASC_NODE": 43.0263,
          "ARG_OF_PERICENTER": 92.1822,
          "MEAN_ANOMALY": 267.9505,
          "EPHEMERIS_TYPE": 0,
          "CLASSIFICATION_TYPE": "U",
          "NORAD_CAT_ID": 49260,
          "ELEMENT_SET_NO": 999,
          "REV_AT_EPOCH": 22210,
          "BSTAR": 0.00011291,
          "MEAN_MOTION_DOT": 4.63e-06,
          "MEAN_MOTION_DDOT": 0
        }
      },
      "geometry": {
        "type": "Point",
        "coordinates": [
          NaN,
          NaN
        ]
      }
    },
    {
      "type": "Feature",
      "properties": {
        "norad_id": 51444,
        "name": "CSG-2",
        "group": "resource",
        "lat": NaN,
        "lon": NaN,
        "alt_km": NaN,
        "timestamp": "2025-12-01T03:03:40.644953+00:00",
        "meta": {
          "OBJECT_NAME": "CSG-2",
          "OBJECT_ID": "2022-008A",
          "EPOCH": "2025-11-30T19:21:43.582752",
          "MEAN_MOTION": 14.82168505,
          "ECCENTRICITY": 0.0001464,
          "INCLINATION": 97.8808,
          "RA_OF_ASC_NODE": 156.3094,
          "ARG_OF_PERICENTER": 86.9736,
          "MEAN_ANOMALY": 273.1645,
          "EPHEMERIS_TYPE": 0,
          "CLASSIFICATION_TYPE": "U",
          "NORAD_CAT_ID": 51444,
          "ELEMENT_SET_NO": 999,
          "REV_AT_EPOCH": 20720,
          "BSTAR": 6.7154e-05,
          "MEAN_MOTION_DOT": 4.83e-06,
          "MEAN_MOTION_DDOT": 0
        }
      },
      "geometry": {
        "type": "Point",
        "coordinates": [
          NaN,
          NaN
        ]
      }
    },
    {
      "type": "Feature",
      "properties": {
        "norad_id": 52912,
        "name": "GAOFEN-12 03",
        "group": "resource",
        "lat": NaN,
        "lon": NaN,
        "alt_km": NaN,
        "timestamp": "2025-12-01T03:03:40.645039+00:00",
        "meta": {
          "OBJECT_NAME": "GAOFEN-12 03",
          "OBJECT_ID": "2022-069A",
          "EPOCH": "2025-11-30T20:51:50.868864",
          "MEAN_MOTION": 14.79561592,
          "ECCENTRICITY": 0.0002349,
          "INCLINATION": 97.8491,
          "RA_OF_ASC_NODE": 222.4923,
          "ARG_OF_PERICENTER": 79.014,
          "MEAN_ANOMALY": 281.1336,
          "EPHEMERIS_TYPE": 0,
          "CLASSIFICATION_TYPE": "U",
          "NORAD_CAT_ID": 52912,
          "ELEMENT_SET_NO": 999,
          "REV_AT_EPOCH": 18528,
          "BSTAR": 0.00017032,
          "MEAN_MOTION_DOT": 1.224e-05,
          "MEAN_MOTION_DDOT": 0
        }
      },
      "geometry": {
        "type": "Point",
        "coordinates": [
          NaN,
          NaN
        ]
      }
    },
    {
      "type": "Feature",
      "properties": {
        "norad_id": 54754,
        "name": "SWOT",
        "group": "resource",
        "lat": NaN,
        "lon": NaN,
        "alt_km": NaN,
        "timestamp": "2025-12-01T03:03:40.645160+00:00",
        "meta": {
          "OBJECT_NAME": "SWOT",
          "OBJECT_ID": "2022-173A",
          "EPOCH": "2025-11-30T20:17:42.343872",
          "MEAN_MOTION": 14.00171876,
          "ECCENTRICITY": 2.83e-05,
          "INCLINATION": 77.6098,
          "RA_OF_ASC_NODE": 303.0468,
          "ARG_OF_PERICENTER": 149.6275,
          "MEAN_ANOMALY": 210.4893,
          "EPHEMERIS_TYPE": 0,
          "CLASSIFICATION_TYPE": "U",
          "NORAD_CAT_ID": 54754,
          "ELEMENT_SET_NO": 999,
          "REV_AT_EPOCH": 15139,
          "BSTAR": 1.878e-05,
          "MEAN_MOTION_DOT": 2.5e-07,
          "MEAN_MOTION_DDOT": 0
        }
      },
      "geometry": {
        "type": "Point",
        "coordinates": [
          NaN,
          NaN
        ]
      }
    },
    {
      "type": "Feature",
      "properties": {
        "norad_id": 57654,
        "name": "GAOFEN-12 04",
        "group": "resource",
        "lat": NaN,
        "lon": NaN,
        "alt_km": NaN,
        "timestamp": "2025-12-01T03:03:40.645399+00:00",
        "meta": {
          "OBJECT_NAME": "GAOFEN-12 04",
          "OBJECT_ID": "2023-123A",
          "EPOCH": "2025-11-30T21:44:21.296256",
          "MEAN_MOTION": 14.79641517,
          "ECCENTRICITY": 0.0001479,
          "INCLINATION": 97.911,
          "RA_OF_ASC_NODE": 250.8435,
          "ARG_OF_PERICENTER": 71.5692,
          "MEAN_ANOMALY": 288.5681,
          "EPHEMERIS_TYPE": 0,
          "CLASSIFICATION_TYPE": "U",
          "NORAD_CAT_ID": 57654,
          "ELEMENT_SET_NO": 999,
          "REV_AT_EPOCH": 12330,
          "BSTAR": 0.00021042,
          "MEAN_MOTION_DOT": 1.527e-05,
          "MEAN_MOTION_DDOT": 0
        }
      },
      "geometry": {
        "type": "Point",
        "coordinates": [
          NaN,
          NaN
        ]
      }
    },
    {
      "type": "Feature",
      "properties": {
        "norad_id": 59065,
        "name": "PARS 1",
        "group": "resource",
        "lat": NaN,
        "lon": NaN,
        "alt_km": NaN,
        "timestamp": "2025-12-01T03:03:40.645574+00:00",
        "meta": {
          "OBJECT_NAME": "PARS 1",
          "OBJECT_ID": "2024-039Q",
          "EPOCH": "2025-11-30T21:55:20.636256",
          "MEAN_MOTION": 15.40578559,
          "ECCENTRICITY": 0.0012577,
          "INCLINATION": 97.4616,
          "RA_OF_ASC_NODE": 305.6011,
          "ARG_OF_PERICENTER": 107.0438,
          "MEAN_ANOMALY": 253.2187,
          "EPHEMERIS_TYPE": 0,
          "CLASSIFICATION_TYPE": "U",
          "NORAD_CAT_ID": 59065,
          "ELEMENT_SET_NO": 999,
          "REV_AT_EPOCH": 9806,
          "BSTAR": 0.00030614,
          "MEAN_MOTION_DOT": 0.00012401,
          "MEAN_MOTION_DDOT": 0
        }
      },
      "geometry": {
        "type": "Point",
        "coordinates": [
          NaN,
          NaN
        ]
      }
    },
    {
      "type": "Feature",
      "properties": {
        "norad_id": 59371,
        "name": "RESURS-P 4",
        "group": "resource",
        "lat": NaN,
        "lon": NaN,
        "alt_km": NaN,
        "timestamp": "2025-12-01T03:03:40.645614+00:00",
        "meta": {
          "OBJECT_NAME": "RESURS-P 4",
          "OBJECT_ID": "2024-061A",
          "EPOCH": "2025-11-30T21:14:53.116800",
          "MEAN_MOTION": 15.31937653,
          "ECCENTRICITY": 0.0002354,
          "INCLINATION": 97.2522,
          "RA_OF_ASC_NODE": 281.4611,
          "ARG_OF_PERICENTER": 56.9776,
          "MEAN_ANOMALY": 303.1692,
          "EPHEMERIS_TYPE": 0,
          "CLASSIFICATION_TYPE": "U",
          "NORAD_CAT_ID": 59371,
          "ELEMENT_SET_NO": 999,
          "REV_AT_EPOCH": 9339,
          "BSTAR": 0.00014715,
          "MEAN_MOTION_DOT": 4.461e-05,
          "MEAN_MOTION_DDOT": 0
        }
      },
      "geometry": {
        "type": "Point",
        "coordinates": [
          NaN,
          NaN
        ]
      }
    },
    {
      "type": "Feature",
      "properties": {
        "norad_id": 59625,
        "name": "LEGION 1",
        "group": "resource",
        "lat": NaN,
        "lon": NaN,
        "alt_km": NaN,
        "timestamp": "2025-12-01T03:03:40.645644+00:00",
        "meta": {
          "OBJECT_NAME": "LEGION 1",
          "OBJECT_ID": "2024-081A",
          "EPOCH": "2025-11-30T18:54:49.840704",
          "MEAN_MOTION": 15.16293531,
          "ECCENTRICITY": 0.0004932,
          "INCLINATION": 97.5229,
          "RA_OF_ASC_NODE": 49.5294,
          "ARG_OF_PERICENTER": 3.832,
          "MEAN_ANOMALY": 356.295,
          "EPHEMERIS_TYPE": 0,
          "CLASSIFICATION_TYPE": "U",
          "NORAD_CAT_ID": 59625,
          "ELEMENT_SET_NO": 999,
          "REV_AT_EPOCH": 8746,
          "BSTAR": 0.00025775,
          "MEAN_MOTION_DOT": 4.926e-05,
          "MEAN_MOTION_DDOT": 0
        }
      },
      "geometry": {
        "type": "Point",
        "coordinates": [
          NaN,
          NaN
        ]
      }
    }
  ]
}